WGS F6 (USA 244)        
1 39222U 13041A   21365.69682848  .00000102  00000+0  00000+0 0  9996
2 39222   0.0180  42.2132 0000400 111.2158  62.5587  1.00266455 29728
ES'HAIL 1               
1 39233U 13044A   21365.87239896  .00000155  00000+0  00000+0 0  9990
2 39233   0.0485  23.5181 0001562 265.1062 151.4338  1.00272730 30319
GSAT-7                  
1 39234U 13044B   21365.94632637 -.00000065  00000+0  00000+0 0  9990
2 39234   0.0210 296.9923 0009352 334.5469 243.7134  1.00269977 29005
AMOS-4                  
1 39237U 13045A   21365.92256512  .00000019  00000+0  00000+0 0  9994
2 39237   0.0316 288.8471 0002896  13.0474 195.7725  1.00270730 30636
AEHF-3 (USA 246)        
1 39256U 13050A   21365.83629059  .00000145  00000+0  00000+0 0  9991
2 39256   1.3167  67.6014 0057939 186.9288 351.9499  1.00275940 29340
ASTRA 2E                
1 39285U 13056A   21365.90862656  .00000162  00000+0  00000+0 0  9998
2 39285   0.0555 359.5601 0002241 283.1518 173.4281  1.00273844 30110
FM-6                    
1 39360U 13058A   21365.70057889 -.00000004  00000+0  00000+0 0  9992
2 39360   0.0288  52.6139 0000284  21.5648 162.1902  1.00273135 29731
RADUGA-1M 3             
1 39375U 13062A   21365.58720461  .00000167  00000+0  00000+0 0  9991
2 39375   1.8154  91.6788 0002539  40.0098 214.8974  1.00273365 29796
SES-8                   
1 39460U 13071A   21365.85161073 -.00000257  00000+0  00000+0 0  9995
2 39460   0.0452 253.8224 0000374  20.6236 227.6263  1.00270032 28108
INMARSAT 5-F1           
1 39476U 13073A   21365.87981251  .00000040  00000+0  00000+0 0  9993
2 39476   0.0040  98.1005 0000583 332.1550  49.5943  1.00270183 29268
TKSAT-1 (TUPAC KATARI)  
1 39481U 13075A   21365.84989664 -.00000182  00000+0  00000+0 0  9992
2 39481   0.0476 220.0757 0002399  75.7847  23.4173  1.00270738 29265
EXPRESS-AM5             
1 39487U 13077A   21365.67991767 -.00000268  00000+0  00000+0 0  9993
2 39487   0.0415 168.4673 0001130 251.4005  65.2405  1.00269949 30027
GSAT-14                 
1 39498U 14001A   21365.94632637 -.00000066  00000+0  00000+0 0  9997
2 39498   0.0672 277.7796 0005491 347.7829 249.6947  1.00270941 29077
THAICOM 6               
1 39500U 14002A   21365.94632637 -.00000110  00000+0  00000+0 0  9992
2 39500   0.0700 122.4324 0001322  61.6102 335.7331  1.00271662 29133
TDRS 12                 
1 39504U 14004A   21365.85914178 -.00000255  00000+0  00000+0 0  9991
2 39504   4.0137 344.5490 0000511 330.3843  54.0138  1.00272513 27953
ABS-2                   
1 39508U 14006A   21365.94632637 -.00000075  00000+0  00000+0 0  9994
2 39508   0.0193  26.2758 0002640 270.1766 219.7352  1.00270997 28960
ATHENA-FIDUS            
1 39509U 14006B   21365.89647087  .00000166  00000+0  00000+0 0  9994
2 39509   0.0194  30.6012 0000839 229.8405 200.6128  1.00273321 28754
TURKSAT 4A              
1 39522U 14007A   21365.89237839  .00000158  00000+0  00000+0 0  9991
2 39522   0.0521 270.6160 0004782 354.8960 198.2525  1.00271731 28665
EXPRESS-AT1             
1 39612U 14010A   21365.91785334  .00000090  00000+0  00000+0 0  9991
2 39612   0.0519 194.5160 0000108 276.2506  16.2078  1.00271273 28727
EXPRESS-AT2             
1 39613U 14010B   21365.67983045 -.00000269  00000+0  00000+0 0  9993
2 39613   0.0396 204.6362 0000086 119.1145 161.1455  1.00270429 28559
AMAZONAS 4A             
1 39616U 14011A   21365.85260041 -.00000240  00000+0  00000+0 0  9990
2 39616   0.1440  84.7124 0003184 194.2766  54.4283  1.00269033 28362
ASTRA 5B                
1 39617U 14011B   21365.93451987  .00000166  00000+0  00000+0 0  9997
2 39617   0.0354  35.5200 0003234 242.5982 190.3594  1.00271456 28343
IRNSS-1B                
1 39635U 14017A   21365.80654912  .00000118  00000+0  00000+0 0  9999
2 39635  29.0835 267.9006 0018100 180.5331 357.4423  1.00274330 28464
LUCH 5V                 
1 39727U 14023A   21365.74261810 -.00000258  00000+0  00000+0 0  9998
2 39727   1.1135  71.0752 0001692 256.7694 134.6359  1.00271650 28036
KAZSAT-3                
1 39728U 14023B   21365.86290479  .00000073  00000+0  00000+0 0  9999
2 39728   0.0215  94.4952 0000470 149.9828 225.1338  1.00268189 26124
EUTELSAT 3B             
1 39773U 14030A   21365.86795083  .00000031  00000+0  00000+0 0  9992
2 39773   0.0598   3.2617 0004823 211.7891 201.0083  1.00269724 27732
ASIASAT 8 (AMOS-7)      
1 40107U 14046A   21365.86655535 -.00000022  00000+0  00000+0 0  9990
2 40107   0.0180  34.1452 0001868 234.4308 139.9955  1.00270277 85818
ASIASAT 6               
1 40141U 14052A   21365.67757590 -.00000350  00000+0  00000+0 0  9992
2 40141   0.0046  87.2579 0000760 210.1263 166.7457  1.00268857 26830
OPTUS 10                
1 40146U 14054A   21365.89839002 -.00000136  00000+0  00000+0 0  9994
2 40146   0.0780  52.1208 0003145 202.7202 325.1144  1.00270722 26704
MEASAT-3B               
1 40147U 14054B   21365.88556892 -.00000230  00000+0  00000+0 0  9992
2 40147   0.0290 344.2274 0002240 329.6674 196.9039  1.00273428 26585
LUCH (OLYMP)            
1 40258U 14058A   21365.86290479  .00000062  00000+0  00000+0 0  9995
2 40258   0.0405 100.1112 0001205 169.1010 201.8735  1.00269198 24673
HIMAWARI-8              
1 40267U 14060A   21365.89533740 -.00000264  00000+0  00000+0 0  9997
2 40267   0.0165   6.9549 0000482 283.9255 272.6165  1.00273024 26437
IRNSS-1C                
1 40269U 14061A   21365.85857940 -.00000150  00000+0  00000+0 0  9991
2 40269   2.6263 136.8657 0017687  11.6265 344.1314  1.00270778 26356
INTELSAT 30 (IS-30)     
1 40271U 14062A   21365.44435729 -.00000138  00000+0  00000+0 0  9993
2 40271   0.0027  66.0612 0002274  46.0355  52.9021  1.00277557 26252
ARSAT 1                 
1 40272U 14062B   21365.85303650 -.00000247  00000+0  00000+0 0  9997
2 40272   0.0100   2.1640 0001367 266.5318  67.0931  1.00270443 26284
EXPRESS-AM6             
1 40277U 14064A   21365.91785334  .00000109  00000+0  00000+0 0  9990
2 40277   0.0408 228.8702 0000366 186.7335  68.3738  1.00272668 26343
GSAT-16                 
1 40332U 14078A   21365.91734483  .00000097  00000+0  00000+0 0  9992
2 40332   0.0534 272.7519 0003129 191.4821  21.6034  1.00269049 25789
DIRECTV 14              
1 40333U 14078B   21365.56042858 -.00000112  00000+0  00000+0 0  9991
2 40333   0.0322  90.6072 0000412  22.7772  89.3376  1.00271540 25733
YAMAL 401               
1 40345U 14082A   21365.96021557 -.00000217  00000+0  00000+0 0  9992
2 40345   0.0144 290.4318 0000574 191.7437  54.0384  1.00272111 26087
ASTRA 2G                
1 40364U 14089A   21365.90575691  .00000161  00000+0  00000+0 0  9994
2 40364   0.0340  37.2201 0002322 340.3020  77.2807  1.00271744 25646
FENGYUN 2G              
1 40367U 14090A   21365.88705164 -.00000291  00000+0  00000+0 0  9991
2 40367   1.5162  91.0053 0003327 324.1308 103.9526  1.00282811 25670
MUOS-3                  
1 40374U 15002A   21365.86503706 -.00000118  00000+0  00000+0 0  9997
2 40374   2.5355   6.1867 0055396 182.1833 208.0923  1.00271429 25267
INMARSAT 5-F2           
1 40384U 15005A   21365.85635080 -.00000273  00000+0  00000+0 0  9993
2 40384   0.0033  92.5731 0000137 210.5884  50.6029  1.00270005 24668
ABS-3A                  
1 40424U 15010A   21365.72316841 -.00000014  00000+0  00000+0 0  9994
2 40424   0.0458  70.7635 0001485 114.2959 172.6172  1.00271620 25057
EUTELSAT 115 WEST B     
1 40425U 15010B   21365.70084053 -.00000012  00000+0  00000+0 0  9998
2 40425   0.0117 165.8184 0000171  73.0778 358.8445  1.00272488 25073
EXPRESS-AM7             
1 40505U 15012A   21365.93451987  .00000162  00000+0  00000+0 0  9993
2 40505   0.0262  16.4878 0002489 264.8024 195.7066  1.00268530 24688
IRNSS-1D                
1 40547U 15018A   21365.67407404 -.00000264  00000+0  00000+0 0  9995
2 40547  28.9143 267.9546 0018409 179.2953   7.3731  1.00265326 24660
BEIDOU 17               
1 40549U 15019A   21365.83174617 -.00000198  00000+0  00000+0 0  9999
2 40549  52.1734 314.7028 0036381 191.5196 349.9432  1.00278783 24752
THOR 7                  
1 40613U 15022A   21365.86716586  .00000003  00000+0  00000+0 0  9999
2 40613   0.0197 111.2252 0002366 169.2868 131.5025  1.00271128 24492
TURKMENALEM52E/MONACOSAT
1 40617U 15023A   21365.87754484  .00000116  00000+0  00000+0 0  9999
2 40617   0.0175  40.2978 0002300 235.8744 192.2737  1.00268947 24511
DIRECTV 15              
1 40663U 15026A   21365.84675678 -.00000090  00000+0  00000+0 0  9999
2 40663   0.0196  72.8572 0000710  95.0736 134.5138  1.00270108 24130
SKY MEXICO-1            
1 40664U 15026B   21365.85164101 -.00000222  00000+0  00000+0 0  9992
2 40664   0.0119  15.1065 0002067 279.3942  33.8039  1.00269776 24125
METEOSAT-11 (MSG-4)     
1 40732U 15034A   21365.86716586  .00000005  00000+0  00000+0 0  9996
2 40732   0.2724 321.0422 0000794 134.8890 316.3134  1.00270234 23702
STAR ONE C4             
1 40733U 15034B   21365.85338538 -.00000252  00000+0  00000+0 0  9998
2 40733   0.0348 135.2958 0001699 109.8149  92.5883  1.00269818 23694
WGS F7 (USA 263)        
1 40746U 15036A   21365.90222763  .00000029  00000+0  00000+0 0  9993
2 40746   0.0376  72.2053 0000306 251.8630 276.2480  1.00272393 23553
INTELSAT 34 (IS-34)     
1 40874U 15039A   21365.85626358 -.00000273  00000+0  00000+0 0  9992
2 40874   0.0108   4.0233 0000489 157.1559 192.0635  1.00271233 23291
EUTELSAT 8 WEST B       
1 40875U 15039B   21365.86568316 -.00000054  00000+0  00000+0 0  9990
2 40875   0.0643  21.1853 0002394 298.7444  84.2094  1.00271450 23322
GSAT-6                  
1 40880U 15041A   21365.77966292 -.00000148  00000+0  00000+0 0  9998
2 40880   0.0457  96.4415 0002982 151.4101 215.7665  1.00271577 23299
INMARSAT 5-F3           
1 40882U 15042A   21365.83131914  .00000062  00000+0  00000+0 0  9997
2 40882   0.0283  36.2554 0000546  58.6065 124.4669  1.00272575 23249
